[{"OBJECT_NAME":"ICESAT-2","OBJECT_ID":"2018-070A","EPOCH":"2026-03-09T22:54:12.225888","MEAN_MOTION":15.28328617,"ECCENTRICITY":0.00038245,"INCLINATION":91.9993,"RA_OF_ASC_NODE":264.2397,"ARG_OF_PERICENTER":123.8941,"MEAN_ANOMALY":236.2673,"EPHEMERIS_TYPE":0,"CLASSIFICATION_TYPE":"U","NORAD_CAT_ID":43613,"ELEMENT_SET_NO":999,"REV_AT_EPOCH":41730,"BSTAR":0.00014022643,"MEAN_MOTION_DOT":3.87e-5,"MEAN_MOTION_DDOT":0},{"OBJECT_NAME":"STARLINK-35604","OBJECT_ID":"2025-278M","EPOCH":"2026-03-09T11:18:15.253632","MEAN_MOTION":15.27595646,"ECCENTRICITY":0.00011141,"INCLINATION":42.9978,"RA_OF_ASC_NODE":115.7689,"ARG_OF_PERICENTER":265.1782,"MEAN_ANOMALY":94.8942,"EPHEMERIS_TYPE":0,"CLASSIFICATION_TYPE":"U","NORAD_CAT_ID":66802,"ELEMENT_SET_NO":999,"REV_AT_EPOCH":1517,"BSTAR":0.00098869913,"MEAN_MOTION_DOT":0.00027058,"MEAN_MOTION_DDOT":0}]
